[{"OBJECT_NAME":"STARLINK-32177","OBJECT_ID":"2024-144S","EPOCH":"2026-03-09T15:09:29.280960","MEAN_MOTION":15.30187894,"ECCENTRICITY":0.0001197,"INCLINATION":53.1602,"RA_OF_ASC_NODE":217.1586,"ARG_OF_PERICENTER":60.2695,"MEAN_ANOMALY":299.8425,"EPHEMERIS_TYPE":0,"CLASSIFICATION_TYPE":"U","NORAD_CAT_ID":60441,"ELEMENT_SET_NO":999,"REV_AT_EPOCH":8930,"BSTAR":-2.4408e-5,"MEAN_MOTION_DOT":-1.082e-5,"MEAN_MOTION_DDOT":0},{"OBJECT_NAME":"NUSHSAT1","OBJECT_ID":"2025-052B","EPOCH":"2026-03-09T15:31:41.225952","MEAN_MOTION":15.31903202,"ECCENTRICITY":0.0005501,"INCLINATION":97.4095,"RA_OF_ASC_NODE":325.7239,"ARG_OF_PERICENTER":84.7512,"MEAN_ANOMALY":275.4357,"EPHEMERIS_TYPE":0,"CLASSIFICATION_TYPE":"U","NORAD_CAT_ID":63211,"ELEMENT_SET_NO":999,"REV_AT_EPOCH":5488,"BSTAR":0.00074857,"MEAN_MOTION_DOT":0.00023034,"MEAN_MOTION_DDOT":0}]
